[Satellite]
VERSION=1.1
NAME=GOES 13
NICKNAME=GOES 13
TLE1=1 29155U 06018A   18020.76993589 -.00000277  00000-0  00000+0 0  9990
TLE2=2 29155   0.3033 103.4554 0011344  94.0749 132.0880  1.00469224 42737
